GAOFEN-1                
1 39150U 13018A   26168.19854122  .00000048  00000+0  14241-4 0  9993
2 39150  97.9098 240.2659 0015681 266.4093  93.5324 14.76535697708241
FENGYUN 4A              
1 41882U 16077A   26167.78064797 -.00000361  00000+0  00000+0 0  9993
2 41882   2.3211  80.2786 0008712 153.4047  76.1551  1.00268694 34926
FORMOSAT-5              
1 42920U 17049A   26168.12186628  .00000124  00000+0  42357-4 0  9996
2 42920  98.2254 243.4330 0012681  84.5511 275.7130 14.50898845466665
FENGYUN 3D              
1 43010U 17072A   26168.21783473  .00000127  00000+0  81928-4 0  9994
2 43010  99.0122 142.6410 0002577  62.8384 297.3054 14.19739314444995
GAOFEN-1 02             
1 43259U 18031A   26168.16295300  .00000538  00000+0  84751-4 0  9999
2 43259  98.0529 230.6901 0003826  34.2731 325.8725 14.76456799442693
GAOFEN-1 03             
1 43260U 18031B   26168.20887277  .00000586  00000+0  91652-4 0  9997
2 43260  98.0517 230.5944 0003736  79.0934 281.0695 14.76469156442690
FENGYUN 3E              
1 49008U 21062A   26168.20169618  .00000373  00000+0  19629-3 0  9990
2 49008  98.7484 171.6096 0002840  86.5881 273.5620 14.19905446256587
FENGYUN 3G              
1 56232U 23055A   26167.97776433  .00021079  00000+0  34209-3 0  9990
2 56232  49.9934 347.1002 0006984 295.4327  64.5917 15.52621426179973
FENGYUN 3F              
1 57490U 23111A   26168.18561440  .00000032  00000+0  35705-4 0  9993
2 57490  98.6836 238.1943 0001592  93.5463 266.5896 14.19939099148867
FENGYUN 3H              
1 65815U 25219A   26168.11152296  .00000038  00000+0  38228-4 0  9991
2 65815  98.6768 108.8821 0001598  76.9295 283.2060 14.19920469 37376
